{
  "type": "FeatureCollection",
  "features": [
    {
      "type": "Feature",
      "properties": {
        "norad_id": 41877,
        "name": "RESOURCESAT-2A",
        "group": "resource",
        "lat": 61.83887166110737,
        "lon": 43.013104016155225,
        "alt_km": 814.7588330071912,
        "timestamp": "2025-12-15T22:44:28.580914+00:00",
        "meta_object_name": "RESOURCESAT-2A",
        "meta_object_id": "2016-074A",
        "meta_epoch": "2025-12-15T08:55:54.429600",
        "meta_mean_motion": 14.21601346,
        "meta_eccentricity": 0.00012141,
        "meta_inclination": 98.7755,
        "meta_ra_of_asc_node": 59.2125,
        "meta_arg_of_pericenter": 241.5478,
        "meta_mean_anomaly": 118.5577,
        "meta_ephemeris_type": 0,
        "meta_classification_type": "U",
        "meta_norad_cat_id": 41877,
        "meta_element_set_no": 999,
        "meta_rev_at_epoch": 46818,
        "meta_bstar": 0.00010903717,
        "meta_mean_motion_dot": 1.95e-06,
        "meta_mean_motion_ddot": 0,
        "tle_line1": "1 41877U 16074A   25349.37215775  .00000195  00000+0  10904-3 0  9996",
        "tle_line2": "2 41877  98.7755  59.2125 0001214 241.5478 118.5577 14.21601346468182"
      },
      "geometry": {
        "type": "Point",
        "coordinates": [
          43.013104016155225,
          61.83887166110737
        ]
      }
    },
    {
      "type": "Feature",
      "properties": {
        "norad_id": 41948,
        "name": "CARTOSAT-2D",
        "group": "resource",
        "lat": 63.41398762523965,
        "lon": -117.46918669152545,
        "alt_km": 499.09582332263017,
        "timestamp": "2025-12-15T22:44:28.580924+00:00",
        "meta_object_name": "CARTOSAT-2D",
        "meta_object_id": "2017-008A",
        "meta_epoch": "2025-12-15T08:00:29.517408",
        "meta_mean_motion": 15.19288839,
        "meta_eccentricity": 0.00048961,
        "meta_inclination": 97.4391,
        "meta_ra_of_asc_node": 46.7917,
        "meta_arg_of_pericenter": 153.8561,
        "meta_mean_anomaly": 206.2922,
        "meta_ephemeris_type": 0,
        "meta_classification_type": "U",
        "meta_norad_cat_id": 41948,
        "meta_element_set_no": 999,
        "meta_rev_at_epoch": 48966,
        "meta_bstar": 0.00018722598,
        "meta_mean_motion_dot": 3.883e-05,
        "meta_mean_motion_ddot": 0,
        "tle_line1": "1 41948U 17008A   25349.33367497  .00003883  00000+0  18723-3 0  9992",
        "tle_line2": "2 41948  97.4391  46.7917 0004896 153.8561 206.2922 15.19288839489661"
      },
      "geometry": {
        "type": "Point",
        "coordinates": [
          -117.46918669152545,
          63.41398762523965
        ]
      }
    },
    {
      "type": "Feature",
      "properties": {
        "norad_id": 42063,
        "name": "SENTINEL-2B",
        "group": "resource",
        "lat": 41.34291384606517,
        "lon": -110.02620457561868,
        "alt_km": 785.073991747021,
        "timestamp": "2025-12-15T22:44:28.580934+00:00",
        "meta_object_name": "SENTINEL-2B",
        "meta_object_id": "2017-013A",
        "meta_epoch": "2025-12-15T08:40:19.148736",
        "meta_mean_motion": 14.30817286,
        "meta_eccentricity": 0.00011592,
        "meta_inclination": 98.5713,
        "meta_ra_of_asc_node": 61.7703,
        "meta_arg_of_pericenter": 93.9286,
        "meta_mean_anomaly": 266.203,
        "meta_ephemeris_type": 0,
        "meta_classification_type": "U",
        "meta_norad_cat_id": 42063,
        "meta_element_set_no": 999,
        "meta_rev_at_epoch": 45835,
        "meta_bstar": 5.7232079e-05,
        "meta_mean_motion_dot": 1.06e-06,
        "meta_mean_motion_ddot": 0,
        "tle_line1": "1 42063U 17013A   25349.36133274  .00000106  00000+0  57232-4 0  9998",
        "tle_line2": "2 42063  98.5713  61.7703 0001159  93.9286 266.2030 14.30817286458351"
      },
      "geometry": {
        "type": "Point",
        "coordinates": [
          -110.02620457561868,
          41.34291384606517
        ]
      }
    },
    {
      "type": "Feature",
      "properties": {
        "norad_id": 42767,
        "name": "CARTOSAT-2E",
        "group": "resource",
        "lat": 25.38728898135964,
        "lon": 43.92891572638777,
        "alt_km": 508.79088510906877,
        "timestamp": "2025-12-15T22:44:28.580944+00:00",
        "meta_object_name": "CARTOSAT-2E",
        "meta_object_id": "2017-036C",
        "meta_epoch": "2025-12-15T08:24:07.349184",
        "meta_mean_motion": 15.19230477,
        "meta_eccentricity": 0.00020539,
        "meta_inclination": 97.4562,
        "meta_ra_of_asc_node": 46.9025,
        "meta_arg_of_pericenter": 225.2184,
        "meta_mean_anomaly": 134.8884,
        "meta_ephemeris_type": 0,
        "meta_classification_type": "U",
        "meta_norad_cat_id": 42767,
        "meta_element_set_no": 999,
        "meta_rev_at_epoch": 47023,
        "meta_bstar": 0.00023252692,
        "meta_mean_motion_dot": 4.83e-05,
        "meta_mean_motion_ddot": 0,
        "tle_line1": "1 42767U 17036C   25349.35008506  .00004830  00000+0  23253-3 0  9995",
        "tle_line2": "2 42767  97.4562  46.9025 0002053 225.2184 134.8884 15.19230477470232"
      },
      "geometry": {
        "type": "Point",
        "coordinates": [
          43.92891572638777,
          25.38728898135964
        ]
      }
    },
    {
      "type": "Feature",
      "properties": {
        "norad_id": 42920,
        "name": "FORMOSAT-5",
        "group": "resource",
        "lat": 12.69146848431924,
        "lon": 62.33151792400478,
        "alt_km": 723.3173320356245,
        "timestamp": "2025-12-15T22:44:28.580956+00:00",
        "meta_object_name": "FORMOSAT-5",
        "meta_object_id": "2017-049A",
        "meta_epoch": "2025-12-15T07:47:14.601120",
        "meta_mean_motion": 14.51007011,
        "meta_eccentricity": 0.00098157,
        "meta_inclination": 98.2452,
        "meta_ra_of_asc_node": 63.5922,
        "meta_arg_of_pericenter": 286.6151,
        "meta_mean_anomaly": 73.3966,
        "meta_ephemeris_type": 0,
        "meta_classification_type": "U",
        "meta_norad_cat_id": 42920,
        "meta_element_set_no": 999,
        "meta_rev_at_epoch": 44001,
        "meta_bstar": 7.0006354e-05,
        "meta_mean_motion_dot": 2.33e-06,
        "meta_mean_motion_ddot": 0,
        "tle_line1": "1 42920U 17049A   25349.32447455  .00000233  00000+0  70006-4 0  9999",
        "tle_line2": "2 42920  98.2452  63.5922 0009815 286.6151  73.3966 14.51007011440011"
      },
      "geometry": {
        "type": "Point",
        "coordinates": [
          62.33151792400478,
          12.69146848431924
        ]
      }
    },
    {
      "type": "Feature",
      "properties": {
        "norad_id": 42969,
        "name": "SENTINEL-5P",
        "group": "resource",
        "lat": 44.57744470403679,
        "lon": -80.25488579202624,
        "alt_km": 822.6073724712669,
        "timestamp": "2025-12-15T22:44:28.580967+00:00",
        "meta_object_name": "SENTINEL-5P",
        "meta_object_id": "2017-064A",
        "meta_epoch": "2025-12-15T07:18:13.880448",
        "meta_mean_motion": 14.19518247,
        "meta_eccentricity": 9.907e-05,
        "meta_inclination": 98.7786,
        "meta_ra_of_asc_node": 287.8657,
        "meta_arg_of_pericenter": 88.9179,
        "meta_mean_anomaly": 271.211,
        "meta_ephemeris_type": 0,
        "meta_classification_type": "U",
        "meta_norad_cat_id": 42969,
        "meta_element_set_no": 999,
        "meta_rev_at_epoch": 42347,
        "meta_bstar": 6.4045457e-05,
        "meta_mean_motion_dot": 9.1e-07,
        "meta_mean_motion_ddot": 0,
        "tle_line1": "1 42969U 17064A   25349.30432732  .00000091  00000+0  64045-4 0  9997",
        "tle_line2": "2 42969  98.7786 287.8657 0000990  88.9179 271.2110 14.19518247423476"
      },
      "geometry": {
        "type": "Point",
        "coordinates": [
          -80.25488579202624,
          44.57744470403679
        ]
      }
    },
    {
      "type": "Feature",
      "properties": {
        "norad_id": 42987,
        "name": "SKYSAT-C11",
        "group": "resource",
        "lat": -14.718548096075025,
        "lon": -54.44145526003464,
        "alt_km": 428.6741281217983,
        "timestamp": "2025-12-15T22:44:28.580978+00:00",
        "meta_object_name": "SKYSAT-C11",
        "meta_object_id": "2017-068A",
        "meta_epoch": "2025-12-15T07:56:09.894912",
        "meta_mean_motion": 15.47564558,
        "meta_eccentricity": 0.00010987,
        "meta_inclination": 97.4133,
        "meta_ra_of_asc_node": 126.8866,
        "meta_arg_of_pericenter": 102.3805,
        "meta_mean_anomaly": 257.7568,
        "meta_ephemeris_type": 0,
        "meta_classification_type": "U",
        "meta_norad_cat_id": 42987,
        "meta_element_set_no": 999,
        "meta_rev_at_epoch": 45471,
        "meta_bstar": 0.00031244389,
        "meta_mean_motion_dot": 0.00016002,
        "meta_mean_motion_ddot": 0,
        "tle_line1": "1 42987U 17068A   25349.33067008  .00016002  00000+0  31244-3 0  9997",
        "tle_line2": "2 42987  97.4133 126.8866 0001098 102.3805 257.7568 15.47564558454714"
      },
      "geometry": {
        "type": "Point",
        "coordinates": [
          -54.44145526003464,
          -14.718548096075025
        ]
      }
    }
  ]
}